{"version": 0.6, "generator": "Overpass API 0.7.62.8 e802775f", "osm3s": {"timestamp_osm_base": "2025-12-04T18:12:02Z", "copyright": "The data included in this document is from www.openstreetmap.org. The data is made available under ODbL."}, "elements": [{"type": "node", "id": 299753439, "lat": 36.0292359, "lon": -78.9146383}, {"type": "node", "id": 299753440, "lat": 36.029518, "lon": -78.9143416}, {"type": "node", "id": 299753441, "lat": 36.0294561, "lon": -78.9142516}, {"type": "node", "id": 299753443, "lat": 36.0299164, "lon": -78.9137675}, {"type": "node", "id": 299753444, "lat": 36.0297222, "lon": -78.9134853}, {"type": "node", "id": 299753445, "lat": 36.0298454, "lon": -78.9133557}, {"type": "node", "id": 299753446, "lat": 36.0294546, "lon": -78.9127876}, {"type": "node", "id": 299753448, "lat": 36.0284821, "lon": -78.9138103}, {"type": "node", "id": 299753450, "lat": 36.0288882, "lon": -78.9144007}, {"type": "node", "id": 299753451, "lat": 36.0288693, "lon": -78.9144206}, {"type": "node", "id": 299753452, "lat": 36.0289886, "lon": -78.914594}, {"type": "node", "id": 299753454, "lat": 36.0292065, "lon": -78.9145955}, {"type": "node", "id": 318811060, "lat": 35.9035265, "lon": -78.9566641}, {"type": "node", "id": 318811061, "lat": 35.9023848, "lon": -78.955684}, {"type": "node", "id": 318811062, "lat": 35.90201, "lon": -78.9566445}, {"type": "node", "id": 318811063, "lat": 35.9028819, "lon": -78.9574022}, {"type": "node", "id": 608431789, "lat": 35.9011804, "lon": -78.7860596}, {"type": "node", "id": 608431793, "lat": 35.900471, "lon": -78.787097}, {"type": "node", "id": 608431798, "lat": 35.9010268, "lon": -78.7876711}, {"type": "node", "id": 608431799, "lat": 35.9010496, "lon": -78.7876378}, {"type": "node", "id": 608431801, "lat": 35.9010845, "lon": -78.7876739}, {"type": "node", "id": 608431804, "lat": 35.9012125, "lon": -78.7874867}, {"type": "node", "id": 608431807, "lat": 35.9011762, "lon": -78.7874493}, {"type": "node", "id": 608431810, "lat": 35.9017867, "lon": -78.7865565}, {"type": "node", "id": 608431814, "lat": 35.9015917, "lon": -78.7863551}, {"type": "node", "id": 608431815, "lat": 35.9015399, "lon": -78.7864309}, {"type": "node", "id": 608904799, "lat": 35.9033343, "lon": -78.7851676}, {"type": "node", "id": 608904800, "lat": 35.9027591, "lon": -78.7843596}, {"type": "node", "id": 608904801, "lat": 35.9018835, "lon": -78.7853012}, {"type": "node", "id": 608904802, "lat": 35.9019726, "lon": -78.7854263}, {"type": "node", "id": 608904803, "lat": 35.9019076, "lon": -78.7854961}, {"type": "node", "id": 608904805, "lat": 35.9019284, "lon": -78.7855252}, {"type": "node", "id": 608904807, "lat": 35.9019183, "lon": -78.785536}, {"type": "node", "id": 608904808, "lat": 35.9023714, "lon": -78.7861726}, {"type": "node", "id": 608904809, "lat": 35.9025053, "lon": -78.7860286}, {"type": "node", "id": 608904810, "lat": 35.9025168, "lon": -78.7860448}, {"type": "node", "id": 608904811, "lat": 35.902659, "lon": -78.7858919}, {"type": "node", "id": 608904812, "lat": 35.9026453, "lon": -78.7858726}, {"type": "node", "id": 608904813, "lat": 35.9026565, "lon": -78.7858606}, {"type": "node", "id": 608904814, "lat": 35.9026772, "lon": -78.7858896}, {"type": "node", "id": 608904817, "lat": 35.9027954, "lon": -78.7857625}, {"type": "node", "id": 608904818, "lat": 35.9027775, "lon": -78.7857374}, {"type": "node", "id": 608904819, "lat": 35.9027905, "lon": -78.7857234}, {"type": "node", "id": 608904820, "lat": 35.9028117, "lon": -78.7857531}, {"type": "node", "id": 608904821, "lat": 35.9030589, "lon": -78.7854873}, {"type": "node", "id": 608904822, "lat": 35.903039, "lon": -78.7854593}, {"type": "node", "id": 608904823, "lat": 35.9030504, "lon": -78.7854471}, {"type": "node", "id": 608904824, "lat": 35.9030672, "lon": -78.7854706}, {"type": "node", "id": 608904827, "lat": 35.903188, "lon": -78.7853407}, {"type": "node", "id": 608904828, "lat": 35.9031672, "lon": -78.7853115}, {"type": "node", "id": 608904829, "lat": 35.9031786, "lon": -78.7852993}, {"type": "node", "id": 608904830, "lat": 35.903193, "lon": -78.7853195}, {"type": "node", "id": 609346140, "lat": 35.9152354, "lon": -78.778129}, {"type": "node", "id": 609346142, "lat": 35.915174, "lon": -78.778038}, {"type": "node", "id": 609346150, "lat": 35.9149283, "lon": -78.7782884}, {"type": "node", "id": 609346157, "lat": 35.9151472, "lon": -78.778613}, {"type": "node", "id": 609346158, "lat": 35.9151421, "lon": -78.7786182}, {"type": "node", "id": 609346159, "lat": 35.9151562, "lon": -78.7786391}, {"type": "node", "id": 609346161, "lat": 35.9151522, "lon": -78.7786431}, {"type": "node", "id": 609346164, "lat": 35.9151675, "lon": -78.7786659}, {"type": "node", "id": 609346166, "lat": 35.9151632, "lon": -78.7786703}, {"type": "node", "id": 609346167, "lat": 35.9151766, "lon": -78.7786901}, {"type": "node", "id": 609346171, "lat": 35.9151667, "lon": -78.7787002}, {"type": "node", "id": 609346196, "lat": 35.9154279, "lon": -78.7790875}, {"type": "node", "id": 609346200, "lat": 35.9154497, "lon": -78.779109}, {"type": "node", "id": 609346202, "lat": 35.9154549, "lon": -78.7791036}, {"type": "node", "id": 609346207, "lat": 35.9154707, "lon": -78.7791269}, {"type": "node", "id": 609346208, "lat": 35.9154759, "lon": -78.7791216}, {"type": "node", "id": 609346210, "lat": 35.9154911, "lon": -78.7791441}, {"type": "node", "id": 609346212, "lat": 35.9154976, "lon": -78.7791374}, {"type": "node", "id": 609346220, "lat": 35.915605, "lon": -78.7792966}, {"type": "node", "id": 609346251, "lat": 35.9161303, "lon": -78.7787613}, {"type": "node", "id": 609346278, "lat": 35.9155689, "lon": -78.7779287}, {"type": "node", "id": 609346287, "lat": 35.9152912, "lon": -78.7782117}, {"type": "node", "id": 1036407531, "lat": 35.9028174, "lon": -78.9573468}, {"type": "node", "id": 1036407572, "lat": 35.901898, "lon": -78.9565483}, {"type": "node", "id": 1036407581, "lat": 35.9029035, "lon": -78.9573637}, {"type": "node", "id": 1036407601, "lat": 35.9027597, "lon": -78.9574492}, {"type": "node", "id": 1036407609, "lat": 35.9019488, "lon": -78.9567531}, {"type": "node", "id": 1036407626, "lat": 35.9030578, "lon": -78.9574962}, {"type": "node", "id": 1228552444, "lat": 35.9026855, "lon": -78.9418945, "tags": {"addr:city": "Durham", "addr:housenumber": "6910", "addr:postcode": "27713", "addr:state": "NC", "addr:street": "Fayetteville Road", "addr:unit": "700", "brand": "Belk", "brand:wikidata": "Q127428", "name": "Belk", "shop": "department_store", "source:addr": "Durham Open Data"}}, {"type": "node", "id": 1228552503, "lat": 35.905596, "lon": -78.9398551, "tags": {"addr:city": "Durham", "addr:housenumber": "6910", "addr:postcode": "27713", "addr:state": "NC", "addr:street": "Fayetteville Road", "addr:unit": "300", "brand": "Macy's", "brand:wikidata": "Q629269", "name": "Macy's", "shop": "department_store", "source:addr": "Durham Open Data", "website": "https://www.macys.com/stores/nc/durham/streets-at-southpoint_783.html"}}, {"type": "node", "id": 1228552523, "lat": 35.903326, "lon": -78.942824, "tags": {"addr:city": "Durham", "addr:housenumber": "6910", "addr:postcode": "27713", "addr:state": "NC", "addr:street": "Fayetteville Road", "addr:unit": "600", "brand": "JCPenney", "brand:wikidata": "Q920037", "name": "JCPenney", "official_name": "J.C. Penney Company", "shop": "department_store", "source:addr": "Durham Open Data"}}, {"type": "node", "id": 1228552548, "lat": 35.9041407, "lon": -78.9407915, "tags": {"addr:city": "Durham", "addr:housenumber": "6910", "addr:postcode": "27713", "addr:state": "NC", "addr:street": "Fayetteville Road", "addr:unit": "500", "brand": "Nordstrom", "brand:wikidata": "Q174310", "name": "Nordstrom", "shop": "department_store", "source:addr": "Durham Open Data", "website": "https://www.nordstrom.com/store-details/nordstrom-the-streets-at-southpoint", "wheelchair": "yes"}}, {"type": "node", "id": 1228552681, "lat": 35.9056072, "lon": -78.941402, "tags": {"addr:city": "Durham", "addr:housenumber": "6910", "addr:postcode": "27713", "addr:state": "NC", "addr:street": "Fayetteville Road", "addr:unit": "400", "brand": "Sears", "brand:wikidata": "Q6499202", "name": "Sears", "shop": "department_store", "source:addr": "Durham Open Data"}}, {"type": "node", "id": 1318860061, "lat": 35.9970118, "lon": -78.88829}, {"type": "node", "id": 1318860113, "lat": 35.9966894, "lon": -78.8886104}, {"type": "node", "id": 1318860118, "lat": 35.9964213, "lon": -78.8883522}, {"type": "node", "id": 1318860130, "lat": 35.9962044, "lon": -78.888619}, {"type": "node", "id": 1318860167, "lat": 35.9964992, "lon": -78.8888383}, {"type": "node", "id": 1318860217, "lat": 35.9964616, "lon": -78.8887032}, {"type": "node", "id": 1318860241, "lat": 35.9962499, "lon": -78.8887895}, {"type": "node", "id": 1318860298, "lat": 35.9969569, "lon": -78.8883124}, {"type": "node", "id": 1318860326, "lat": 35.9970573, "lon": -78.8884605}, {"type": "node", "id": 1318860342, "lat": 35.9967259, "lon": -78.8887421}, {"type": "node", "id": 1318860351, "lat": 35.9967575, "lon": -78.8882181}, {"type": "node", "id": 1318860359, "lat": 35.9964634, "lon": -78.8885135}, {"type": "node", "id": 1318860376, "lat": 35.996933, "lon": -78.8882181}, {"type": "node", "id": 1318860386, "lat": 35.9967736, "lon": -78.88828}, {"type": "node", "id": 1570070582, "lat": 36.0495463, "lon": -78.9048681, "tags": {"name": "Roses", "shop": "department_store"}}, {"type": "node", "id": 1572562928, "lat": 36.0262563, "lon": -78.9162066}, {"type": "node", "id": 1572562930, "lat": 36.0262881, "lon": -78.9161689}, {"type": "node", "id": 1572562934, "lat": 36.0262845, "lon": -78.9162429}, {"type": "node", "id": 1572562935, "lat": 36.0263282, "lon": -78.9162205}, {"type": "node", "id": 1572562939, "lat": 36.0266134, "lon": -78.9158819}, {"type": "node", "id": 1572562940, "lat": 36.0266278, "lon": -78.9159004}, {"type": "node", "id": 1572562942, "lat": 36.0266565, "lon": -78.9167218}, {"type": "node", "id": 1572562946, "lat": 36.0266995, "lon": -78.9166707}, {"type": "node", "id": 1572562948, "lat": 36.0267178, "lon": -78.9166942}, {"type": "node", "id": 1572562951, "lat": 36.0268826, "lon": -78.9164518}, {"type": "node", "id": 1572562955, "lat": 36.0269015, "lon": -78.9164761}, {"type": "node", "id": 1572562958, "lat": 36.0269562, "lon": -78.9163232}, {"type": "node", "id": 1572562959, "lat": 36.0269729, "lon": -78.9163447}, {"type": "node", "id": 1598440124, "lat": 35.9510454, "lon": -78.9883281}, {"type": "node", "id": 1598440133, "lat": 35.9488588, "lon": -78.9918067}, {"type": "node", "id": 1598440134, "lat": 35.949513, "lon": -78.9920298}, {"type": "node", "id": 1598440156, "lat": 35.9511397, "lon": -78.988058}, {"type": "node", "id": 1598440167, "lat": 35.9511327, "lon": -78.9886816}, {"type": "node", "id": 1598440169, "lat": 35.9511325, "lon": -78.988328}, {"type": "node", "id": 1598440195, "lat": 35.951683, "lon": -78.9886811}, {"type": "node", "id": 1598440197, "lat": 35.9488524, "lon": -78.990757}, {"type": "node", "id": 1598440199, "lat": 35.9491745, "lon": -78.9918038}, {"type": "node", "id": 1598440210, "lat": 35.9495052, "lon": -78.9907508}, {"type": "node", "id": 1598440211, "lat": 35.9491759, "lon": -78.992033}, {"type": "node", "id": 1598440214, "lat": 35.9516824, "lon": -78.9877451}, {"type": "node", "id": 1598440215, "lat": 35.9511395, "lon": -78.9877456}, {"type": "node", "id": 1598440218, "lat": 35.9510452, "lon": -78.9880581}, {"type": "node", "id": 1861970674, "lat": 35.9670001, "lon": -78.9565453, "tags": {"addr:city": "Durham", "addr:housenumber": "4005", "addr:postcode": "27707", "addr:state": "NC", "addr:street": "Durham Chapel Hill Boulevard", "brand": "Sam's Club", "brand:wikidata": "Q1972120", "name": "Sam's Club", "opening_hours": "Mo 10:00-20:00; Sa 09:00-20:00; Su 10:00-18:00", "operator": "Walmart", "operator:wikidata": "Q483551", "phone": "+1 919-489-8160", "ref": "4831", "shop": "wholesale", "source:addr": "Durham Open Data", "website": "https://www.samsclub.com/club/durham-nc-sams-club/4831", "wholesale": "yes"}}, {"type": "node", "id": 1861970689, "lat": 35.9662251, "lon": -78.9589406, "tags": {"addr:city": "Durham", "addr:housenumber": "4037", "addr:postcode": "27707", "addr:state": "NC", "addr:street": "Durham-Chapel Hill Boulevard", "alt_name": "Super Target", "brand": "Target", "brand:wikidata": "Q1046951", "name": "Target", "opening_hours": "Mo-Su 07:00-22:00", "phone": "+1 919-765-0008", "shop": "department_store", "source:addr": "Durham Open Data", "website": "https://www.target.com/sl/durham/1872"}}, {"type": "node", "id": 1861970862, "lat": 35.9665713, "lon": -78.9578301, "tags": {"addr:city": "Durham", "addr:housenumber": "4021", "addr:postcode": "27707", "addr:state": "NC", "addr:street": "Durham Chapel Hill Boulevard", "brand": "Ross", "brand:wikidata": "Q3442791", "name": "Ross", "official_name": "Ross Dress for Less", "opening_hours": "Mo-Th 09:30-22:00; Fr-Sa 08:30-22:00; Su 09:30-22:00", "phone": "+1 919-493-6314", "ref": "790", "shop": "department_store", "source:addr": "Durham Open Data"}}, {"type": "node", "id": 2086676821, "lat": 35.9096759, "lon": -78.9407231, "tags": {"addr:city": "Durham", "addr:country": "US", "addr:housenumber": "105", "addr:state": "NC", "addr:street": "West NC Highway 54", "fixme": "add addr:unit", "name": "Roses", "opening_hours": "Mo-Fr 09:00-21:00; Su 10:00-20:00", "payment:american_express": "yes", "payment:cash": "yes", "payment:discover_card": "yes", "payment:mastercard": "yes", "payment:visa": "yes", "shop": "department_store"}}, {"type": "node", "id": 2413707489, "lat": 35.9086396, "lon": -78.7825247, "tags": {"addr:city": "Raleigh", "addr:housenumber": "8191", "addr:postcode": "27617", "addr:state": "NC", "addr:street": "Brier Creek Parkway", "brand": "Ross", "brand:wikidata": "Q3442791", "name": "Ross", "official_name": "Ross Dress for Less", "opening_hours": "Mo-Th 09:30-22:00; Fr-Sa 09:00-09:00, 22:00-22:00; Su 09:30-21:00", "phone": "+1 919-484-8303", "ref": "621", "shop": "department_store"}}, {"type": "node", "id": 3480973320, "lat": 35.9888241, "lon": -78.9248955}, {"type": "node", "id": 3480973321, "lat": 35.9887422, "lon": -78.9246992}, {"type": "node", "id": 3480973322, "lat": 35.9886396, "lon": -78.9247647}, {"type": "node", "id": 3480973323, "lat": 35.9887215, "lon": -78.9249609}, {"type": "node", "id": 4301482489, "lat": 35.9078858, "lon": -78.7831765}, {"type": "node", "id": 5706474721, "lat": 35.9554022, "lon": -78.997466, "tags": {"addr:city": "Durham", "addr:housenumber": "5438", "addr:postcode": "27707", "addr:state": "NC", "addr:street": "New Hope Commons Drive", "brand": "Marshalls", "brand:wikidata": "Q15903261", "name": "Marshalls", "shop": "department_store", "source:addr": "Durham Open Data"}}, {"type": "node", "id": 6876072539, "lat": 35.8927635, "lon": -78.6501171, "tags": {"name": "Acadian Industrial Textiles", "shop": "wholesale"}}, {"type": "node", "id": 6977242973, "lat": 35.987316, "lon": -78.8603423}, {"type": "node", "id": 6977242979, "lat": 35.9873487, "lon": -78.8601733}, {"type": "node", "id": 6977242980, "lat": 35.9869601, "lon": -78.8603429}, {"type": "node", "id": 6977242981, "lat": 35.9873377, "lon": -78.8601418}, {"type": "node", "id": 6977242982, "lat": 35.9873933, "lon": -78.8603012}, {"type": "node", "id": 6977242983, "lat": 35.9870157, "lon": -78.8605023}, {"type": "node", "id": 7027377711, "lat": 36.0387012, "lon": -78.8940624, "tags": {"alt_name": "Burlington Coat Factory", "brand": "Burlington", "brand:wikidata": "Q4999220", "name": "Burlington", "shop": "department_store"}}, {"type": "node", "id": 9403720137, "lat": 35.8983899, "lon": -78.652885, "tags": {"addr:city": "Raleigh", "addr:housenumber": "8701", "addr:postcode": "27615-2968", "addr:state": "NC", "addr:street": "Six Forks Road", "brand": "Target", "brand:wikidata": "Q1046951", "name": "Target", "opening_hours": "Mo-Sa 08:00-22:00; Su 08:00-21:00", "phone": "+1 919-326-0118", "shop": "department_store", "toilets": "yes", "website": "https://www.target.com/sl/raleigh-six-forks-rd/2873"}}, {"type": "node", "id": 9881950135, "lat": 35.9078727, "lon": -78.7831118}, {"type": "node", "id": 9881950136, "lat": 35.9078006, "lon": -78.7828091}, {"type": "node", "id": 9881950139, "lat": 35.9074825, "lon": -78.7833182}, {"type": "node", "id": 9881950140, "lat": 35.9073357, "lon": -78.7826634}, {"type": "node", "id": 9881950141, "lat": 35.9076809, "lon": -78.7825439}, {"type": "node", "id": 9881950142, "lat": 35.9076604, "lon": -78.7824599}, {"type": "node", "id": 9881950143, "lat": 35.9077137, "lon": -78.7824387}, {"type": "way", "id": 27306470, "nodes": [299753439, 299753440, 299753441, 299753443, 299753444, 299753445, 299753446, 299753448, 299753450, 299753451, 299753452, 299753454, 299753439], "tags": {"addr:city": "Durham", "addr:housenumber": "1510", "addr:postcode": "27705-3405", "addr:state": "NC", "addr:street": "North Pointe Drive", "branch": "Durham", "brand": "Costco", "brand:wikidata": "Q715583", "building": "retail", "building:levels": "1", "membership": "yes", "name": "Costco", "opening_hours": "Mo-Fr 10:00-20:30; Sa 09:30-18:00; Su 10:00-18:00", "operator": "Costco", "phone": "+1 919-220-2770", "ref": "249", "shop": "wholesale", "website": "https://www.costco.com/warehouse-locations/durham-nc-249.html", "wheelchair": "yes"}}, {"type": "way", "id": 28992869, "nodes": [318811060, 318811061, 1036407572, 318811062, 1036407609, 1036407601, 1036407531, 318811063, 1036407581, 1036407626, 318811060], "tags": {"addr:city": "Durham", "addr:housenumber": "8210", "addr:postcode": "27713-6688", "addr:state": "NC", "addr:street": "Renaissance Parkway", "branch": "Durham Renaissance Pkwy", "brand": "Target", "brand:wikidata": "Q1046951", "building": "yes", "name": "Target", "opening_hours": "07:00-22:00", "phone": "+1 919-425-0001", "shop": "department_store", "toilets:wheelchair": "yes", "website": "https://www.target.com/sl/durham-se/2069", "wheelchair": "yes"}}, {"type": "way", "id": 47837365, "nodes": [608431789, 608431793, 608431798, 608431799, 608431801, 608431804, 608431807, 608431810, 608431814, 608431815, 608431789], "tags": {"brand": "BJ's Wholesale Club", "brand:wikidata": "Q4835754", "building": "yes", "building:use": "commercial", "name": "BJ's Wholesale Club", "shop": "wholesale", "source": "WakeGIS"}}, {"type": "way", "id": 47880266, "nodes": [608904799, 608904800, 608904801, 608904802, 608904803, 608904805, 608904807, 608904808, 608904809, 608904810, 608904811, 608904812, 608904813, 608904814, 608904817, 608904818, 608904819, 608904820, 608904821, 608904822, 608904823, 608904824, 608904827, 608904828, 608904829, 608904830, 608904799], "tags": {"addr:city": "Raleigh", "addr:housenumber": "8651", "addr:postcode": "27617-7325", "addr:state": "NC", "addr:street": "Brier Creek Parkway", "brand": "Target", "brand:wikidata": "Q1046951", "building": "yes", "building:use": "commercial", "name": "Target", "opening_hours": "07:00-22:00", "phone": "+1 919-765-0005", "shop": "department_store", "source": "WakeGIS", "website": "https://www.target.com/sl/raleigh-brier-creek/1794"}}, {"type": "way", "id": 47917536, "nodes": [609346140, 609346142, 609346150, 609346157, 609346158, 609346159, 609346161, 609346164, 609346166, 609346167, 609346171, 609346196, 609346200, 609346202, 609346207, 609346208, 609346210, 609346212, 609346220, 609346251, 609346278, 609346287, 609346140], "tags": {"addr:city": "Raleigh", "addr:housenumber": "7822", "addr:postcode": "27617", "addr:state": "NC", "addr:street": "Alexander Promenade Place", "branch": "Brier Creek", "brand": "Kohl's", "brand:wikidata": "Q967265", "building": "yes", "building:use": "commercial", "name": "Kohl's", "opening_hours": "Mo-Sa 09:00-21:00; Su 09:00-20:00", "phone": "+1 919-598-9625", "ref": "706", "shop": "department_store", "source": "WakeGIS", "website": "https://www.kohls.com/stores/nc/raleigh-706.shtml"}}, {"type": "way", "id": 117073643, "nodes": [1318860298, 1318860376, 1318860386, 1318860351, 1318860118, 1318860359, 1318860130, 1318860241, 1318860217, 1318860167, 1318860342, 1318860113, 1318860326, 1318860061, 1318860298], "tags": {"addr:city": "Durham", "addr:housenumber": "812", "addr:postcode": "27701", "addr:state": "NC", "addr:street": "Mallard Avenue", "building": "yes", "name": "Counter Culture Coffee", "shop": "wholesale", "source:addr": "Durham Open Data", "website": "https://counterculturecoffee.com/"}}, {"type": "way", "id": 143699120, "nodes": [1572562948, 1572562955, 1572562951, 1572562959, 1572562958, 1572562940, 1572562939, 1572562935, 1572562930, 1572562928, 1572562934, 1572562942, 1572562946, 1572562948], "tags": {"addr:city": "Durham", "addr:housenumber": "1515", "addr:postcode": "27705", "addr:state": "NC", "addr:street": "North Pointe Drive", "addr:unit": "130", "brand": "Ross", "brand:wikidata": "Q3442791", "building": "yes", "name": "Ross", "official_name": "Ross Dress for Less", "opening_hours": "Mo-Th 09:00-22:00; Fr-Sa 09:00-23:00; Su 09:00-22:00", "phone": "+1 919-317-8617", "ref": "560", "shop": "department_store"}}, {"type": "way", "id": 146580517, "nodes": [1598440195, 1598440167, 1598440169, 1598440124, 1598440218, 1598440156, 1598440215, 1598440214, 1598440195], "tags": {"addr:city": "Durham", "addr:housenumber": "3420", "addr:postcode": "27707", "addr:state": "NC", "addr:street": "Southwest Durham Drive", "brand": "Big Lots", "brand:wikidata": "Q4905973", "building": "retail", "building:levels": "1", "name": "Big Lots", "opening_hours": "Mo-Sa 09:00-21:00; Su 10:00-21:00", "phone": "+1 984-243-0465", "roof:levels": "0", "roof:shape": "flat", "shop": "department_store", "website": "https://local.biglots.com/nc/durham/3420-southwest-durham-dr"}}, {"type": "way", "id": 146580526, "nodes": [1598440134, 1598440211, 1598440199, 1598440133, 1598440197, 1598440210, 1598440134], "tags": {"addr:city": "Durham", "addr:housenumber": "5241", "addr:postcode": "27707", "addr:state": "NC", "addr:street": "McFarland Drive", "brand": "Kohl's", "brand:wikidata": "Q967265", "building": "retail", "building:levels": "1", "name": "Kohl's", "opening_hours": "Su 09:00-21:00; Mo-Th 09:00-22:00; Fr 09:00-23:00; Sa 08:00-23:00", "phone": "+1 919-489-1116", "ref": "720", "roof:levels": "0", "roof:shape": "flat", "shop": "department_store", "source:addr": "Durham Open Data", "website": "https://www.kohls.com/stores/nc/durham-720.shtml", "wheelchair": "yes"}}, {"type": "way", "id": 340855516, "nodes": [3480973320, 3480973321, 3480973322, 3480973323, 3480973320], "tags": {"addr:city": "Durham", "addr:housenumber": "1901", "addr:postcode": "27707", "addr:state": "NC", "addr:street": "Chapel Hill Road", "advertising": "board", "building": "commercial", "building:levels": "1", "name": "Part & Parcel", "shop": "wholesale", "source:addr": "Durham Open Data", "website": "https://www.pnpdurham.com/", "wholesale": "food"}}, {"type": "way", "id": 745366577, "nodes": [6977242983, 6977242973, 6977242982, 6977242979, 6977242981, 6977242980, 6977242983], "tags": {"building": "yes", "name": "Nomadic Trading Company", "shop": "wholesale"}}, {"type": "way", "id": 1077799317, "nodes": [9881950135, 4301482489, 9881950139, 9881950140, 9881950141, 9881950142, 9881950143, 9881950136, 9881950135], "tags": {"addr:housenumber": "8361", "addr:street": "Brier Creek Parkway", "brand": "TJ Maxx", "brand:wikidata": "Q10860683", "building": "retail", "name": "TJ Maxx", "opening_hours": "Mo-Sa 09:30-21:30; Su 10:00-20:00", "operator": "TJ Maxx", "shop": "department_store"}}]}